ONEWEB-0545             
1 54647U 22166F   24119.51728112  .00000021  00000+0  19647-4 0  9990
2 54647  87.9311  39.1939 0001539  66.9295 293.2001 13.21828558 68505
ONEWEB-0580             
1 54648U 22166G   24119.49047265  .00000116  00000+0  24884-3 0  9994
2 54648  87.9320  39.1642 0001894  61.3912 298.7413 13.21832155 68545
ONEWEB-0582             
1 54649U 22166H   24119.53305115  .00000027  00000+0  34236-4 0  9995
2 54649  87.9315  39.1947 0001676  68.5396 291.5917 13.21832194 68522
ONEWEB-0583             
1 54650U 22166J   24119.46840057  .00000016  00000+0  80438-5 0  9992
2 54650  87.9314  39.2087 0002054  90.2632 269.8737 13.21828873 68522
ONEWEB-0584             
1 54651U 22166K   24119.48889925  .00000112  00000+0  23887-3 0  9992
2 54651  87.9321  39.1677 0001855  68.3384 291.7947 13.21828176 68515
ONEWEB-0585             
1 54652U 22166L   24119.51412808 -.00000007  00000+0 -47444-4 0  9990
2 54652  87.9321  39.1701 0001728  83.3198 276.8132 13.21825012 68520
ONEWEB-0586             
1 54653U 22166M   24119.52673510  .00000092  00000+0  19033-3 0  9995
2 54653  87.9314  39.1859 0001808  72.6214 287.5118 13.21827760 68521
ONEWEB-0587             
1 54654U 22166N   24119.53620191  .00000050  00000+0  88944-4 0  9996
2 54654  87.9313  39.1400 0002060  88.3460 271.7909 13.21824355 68688
